NORAD_CAT_ID,EPOCH,MEAN_MOTION,ECCENTRICITY,INCLINATION,RA_OF_ASC_NODE,ARG_OF_PERICENTER,MEAN_ANOMALY,APOAPSIS,PERIAPSIS,BSTAR,COUNTRY_CODE,RCS_SIZE,NAME,LINE1,LINE2
37735,2025-08-08T23:17:08.043936,14.95333902,0.0047121,98.4571,119.1368,98.5407,281.9784,614.132,548.545,0.0016163,PRC,SMALL,0 CZ-2C DEB,1 37735U 11030F   25220.97023199  .00018193  00000-0  16163-2 0  9992,2 37735  98.4571 119.1368 0047121  98.5407 281.9784 14.95333902751133
37750,2025-08-08T12:29:55.773024,3.31051612,0.6288737,45.1848,186.1237,182.6549,171.1333,24597.873,679.509,-0.00087575,CIS,LARGE,0 BREEZE-M DEB (TANK),1 37750U 11035C   25220.52078441 -.00000122  00000-0 -87575-3 0  9996,2 37750  45.1848 186.1237 6288737 182.6549 171.1333  3.31051612169814
37756,2025-08-08T21:41:50.730432,11.44128774,0.1823079,51.4322,205.2683,113.1909,267.0929,3457.804,424.467,0.00063648,CIS,LARGE,0 FREGAT DEB (TANK),1 37756U 11037B   25220.90405938  .00003031  00000-0  63648-3 0  9996,2 37756  51.4322 205.2683 1823079 113.1909 267.0929 11.44128774579428
37767,2025-08-08T18:13:16.354848,14.4261904,0.012392,97.9444,309.4772,315.2287,43.8955,838.19,661.53,0.00043023,PRC,SMALL,0 CZ-2C DEB,1 37767U 11039C   25220.75921707  .00001523  00000-0  43023-3 0  9999,2 37767  97.9444 309.4772 0123920 315.2287  43.8955 14.42619040732069
37768,2025-08-08T21:11:13.559712,14.42252407,0.0127503,98.3259,171.8594,100.2241,328.4271,841.968,660.169,0.0008552,PRC,SMALL,0 CZ-2C DEB,1 37768U 11039D   25220.88279583  .00003064  00000-0  85520-3 0  9992,2 37768  98.3259 171.8594 0127503 100.2241 328.4271 14.42252407732215
37769,2025-07-13T02:43:43.410432,16.24929569,0.0016798,98.3388,166.2002,198.8068,161.2602,217.264,195.143,0.0040074,PRC,SMALL,0 CZ-2C DEB,1 37769U 11039E   25194.11369688  .11549469  30138-5  40074-2 0  9995,2 37769  98.3388 166.2002 0016798 198.8068 161.2602 16.24929569746379
37770,2025-08-09T12:58:27.094368,14.95268983,0.0046127,97.9149,143.2719,335.2386,202.292,613.643,549.437,0.0022324,PRC,SMALL,0 CZ-2C DEB,1 37770U 11039F   25221.54059137  .00025116  00000-0  22324-2 0  9994,2 37770  97.9149 143.2719 0046127 335.2386 202.2920 14.95268983746999
37784,2025-07-31T00:04:46.060032,8.43952588,0.14629007,55.9164,299.7801,149.308,16.5928,5302.981,2321.482,-0.91247935,CIS,MEDIUM,0 COSMOS 382 DEB,1 37784U 70103H   25212.00331088 -.00004282  00000-0 -91248+0 0  9996,2 37784  55.9164 299.7801 1462901 149.3080  16.5928  8.43952588324322
37787,2025-08-08T05:12:47.356992,2.05995092,0.6119361,23.7456,117.4265,83.7209,12.467,35679.523,3746.993,0.0,CIS,LARGE,0 BREEZE-M DEB (ADAPTOR),1 37787U 11035E   25220.21721478 -.00000306  00000-0  00000-0 0  9995,2 37787  23.7456 117.4265 6119361  83.7209  12.4670  2.05995092103671
37796,2025-08-08T22:09:50.175360,14.64196349,0.0014776,97.9106,192.5272,85.0079,296.995,690.087,669.23,0.0001896,CIS,LARGE,0 SL-24 DEB,1 37796U 11044J   25220.92349740  .00000954  00000-0  18960-3 0  9996,2 37796  97.9106 192.5272 0014776  85.0079 296.9950 14.64196349744774
37808,2025-08-08T04:40:23.086560,2.2872532,0.7123837,47.0248,136.0742,128.1828,319.974,35288.98,620.379,0.0003744,CIS,LARGE,0 BREEZE-M DEB (TANK),1 37808U 11048C   25220.19471165  .00000138  00000-0  37440-3 0  9998,2 37808  47.0248 136.0742 7123837 128.1828 319.9740  2.28725320114849
37828,2025-08-08T04:43:52.089888,4.803606,0.5480597,49.4393,182.7004,343.3517,4.0392,16590.999,327.47,0.0010141,CIS,LARGE,0 BREEZE-M DEB (TANK),1 37828U 11054C   25220.19713067  .00003184  00000-0  10141-2 0  9999,2 37828  49.4393 182.7004 5480597 343.3517   4.0392  4.80360600232965
37831,2025-08-08T21:13:21.550080,14.74446816,0.0007361,98.17,272.4104,234.4711,299.6652,652.081,641.739,0.0021988,US,MEDIUM,0 NOAA 12 DEB,1 37831U 91032D   25220.88427720  .00014583  00000-0  21988-2 0  9997,2 37831  98.1700 272.4104 0007361 234.4711 299.6652 14.74446816729370
37832,2025-08-08T22:08:27.791232,14.5657322,0.0007186,98.3032,277.3249,16.7081,156.4323,709.352,699.173,0.00050422,US,MEDIUM,0 NOAA 12 DEB,1 37832U 91032E   25220.92254388  .00002201  00000-0  50422-3 0  9991,2 37832  98.3032 277.3249 0007186  16.7081 156.4323 14.56573220727284
37845,2025-08-08T21:42:13.057056,6.42848243,0.4504807,49.7091,268.9969,321.3191,13.7547,11343.678,335.831,0.00063065,CIS,LARGE,0 BREEZE-M DEB (TANK),1 37845U 11059C   25220.90431779  .00002970  00000-0  63065-3 0  9995,2 37845  49.7091 268.9969 4504807 321.3191  13.7547  6.42848243315867
37862,2025-08-09T10:17:10.179456,12.49309939,0.0837028,69.1417,284.9593,227.7104,124.9997,2124.077,810.693,0.050169,US,SMALL,0 SCOUT B DEB,1 37862U 65063AE  25221.42859004  .00027518  00000-0  50169-1 0  9995,2 37862  69.1417 284.9593 0837028 227.7104 124.9997 12.49309939711332
37863,2025-08-08T13:15:01.951488,14.40559018,0.002322,74.048,322.5278,338.1336,21.8826,773.221,740.087,8.1002e-05,CIS,SMALL,0 COSMOS 1331 DEB,1 37863U 82001E   25220.55210592  .00000232  00000-0  81002-4 0  9990,2 37863  74.0480 322.5278 0023220 338.1336  21.8826 14.40559018657537
37865,2025-07-13T14:46:43.593312,13.76020456,0.0033286,82.9704,146.7053,281.2944,78.4473,1002.523,953.552,6.2457e-05,CIS,SMALL,0 COSMOS 1417 DEB,1 37865U 82102D   25194.61578233  .00000076  00000-0  62457-4 0  9999,2 37865  82.9704 146.7053 0033286 281.2944  78.4473 13.76020456 60002
37871,2025-08-07T18:20:21.342624,4.39795915,0.5752839,52.6269,327.4133,2.6538,359.3759,18410.915,305.301,0.00065817,CIS,LARGE,0 BREEZE-M DEB (TANK),1 37871U 11064E   25219.76413591  .00002214  00000-0  65817-3 0  9992,2 37871  52.6269 327.4133 5752839   2.6538 359.3759  4.39795915217311
37886,2025-08-08T16:18:33.297120,14.39585204,0.0022895,74.0288,4.8135,64.8739,295.4788,776.214,743.529,6.086e-05,CIS,SMALL,0 SL-8 DEB,1 37886U 71114E   25220.67955205  .00000164  00000-0  60860-4 0  9991,2 37886  74.0288   4.8135 0022895  64.8739 295.4788 14.39585204636297
37887,2025-08-09T12:40:27.123744,14.42296464,0.0012859,74.0186,316.7597,62.4401,297.8059,760.09,741.756,0.00011136,CIS,SMALL,0 COSMOS 468 DEB,1 37887U 71114F   25221.52809171  .00000341  00000-0  11136-3 0  9995,2 37887  74.0186 316.7597 0012859  62.4401 297.8059 14.42296464215034
37888,2025-08-07T12:45:18.983808,13.48891336,0.0044257,100.6171,230.8646,261.1934,230.4334,1109.334,1043.351,0.0023097,US,SMALL,0 NIMBUS 2 DEB,1 37888U 66040AT  25219.53146972  .00001402  00000-0  23097-2 0  9996,2 37888 100.6171 230.8646 0044257 261.1934 230.4334 13.48891336793801
37889,2025-08-03T11:28:13.252224,13.51432643,0.0049472,100.5481,208.5739,223.0435,289.053,1103.827,1030.162,0.0028699,US,SMALL,0 NIMBUS 2 DEB,1 37889U 66040AU  25215.47793116  .00001832  00000-0  28699-2 0  9994,2 37889 100.5481 208.5739 0049472 223.0435 289.0530 13.51432643769185
37890,2025-08-09T06:49:24.085920,13.48274008,0.0039909,100.5128,164.9864,214.9954,144.8553,1108.377,1048.858,0.0026328,US,SMALL,0 NIMBUS 2 DEB,1 37890U 66040AV  25221.28430655  .00001589  00000-0  26328-2 0  9994,2 37890 100.5128 164.9864 0039909 214.9954 144.8553 13.48274008679951
37891,2025-08-08T19:27:28.653984,13.48171948,0.0059965,100.55,170.5486,290.8712,68.6005,1123.711,1034.277,0.0041144,US,SMALL,0 NIMBUS 2 DEB,1 37891U 66040AW  25220.81074831  .00002522  00000-0  41144-2 0  9994,2 37891 100.5500 170.5486 0059965 290.8712  68.6005 13.48171948691787
37892,2025-08-08T18:59:59.858592,13.46910713,0.0043183,100.5076,159.2843,225.6849,191.8333,1115.871,1051.426,0.0021789,US,SMALL,0 NIMBUS 2 DEB,1 37892U 66040AX  25220.79166503  .00001279  00000-0  21789-2 0  9991,2 37892 100.5076 159.2843 0043183 225.6849 191.8333 13.46910713319801
37893,2025-08-07T15:27:24.227424,13.48180842,0.0053098,100.5066,172.5757,201.4619,341.4393,1118.557,1039.365,0.0021258,US,SMALL,0 NIMBUS 2 DEB,1 37893U 66040AY  25219.64403041  .00001276  00000-0  21258-2 0  9993,2 37893 100.5066 172.5757 0053098 201.4619 341.4393 13.48180842763789
37900,2025-08-08T19:21:42.051744,14.01974846,0.0216715,102.3068,253.4889,181.2602,178.803,1044.412,729.521,0.0018013,PRC,SMALL,0 FENGYUN 1C DEB,1 37900U 99025EMZ 25220.80673671  .00003304  00000-0  18013-2 0  9998,2 37900 102.3068 253.4889 0216715 181.2602 178.8030 14.01974846580499
37902,2025-08-04T14:53:03.551136,13.52044446,0.0322151,98.692,92.746,282.9887,73.5469,1304.521,824.975,0.0012477,PRC,SMALL,0 FENGYUN 1C DEB,1 37902U 99025ENB 25216.62017999  .00001097  00000-0  12477-2 0  9995,2 37902  98.6920  92.7460 0322151 282.9887  73.5469 13.52044446612188
37906,2025-08-07T08:52:35.131584,13.80569752,0.0162933,99.6164,258.0887,2.8961,8.3283,1081.461,842.276,0.00027856,PRC,SMALL,0 FENGYUN 1C DEB,1 37906U 99025ENF 25219.36985106  .00000276  00000-0  27856-3 0  9993,2 37906  99.6164 258.0887 0162933   2.8961   8.3283 13.80569752819143
37907,2025-08-07T01:06:54.378144,14.21789469,0.0064712,99.0777,328.1768,188.1348,171.8785,865.885,772.733,0.0020862,PRC,SMALL,0 FENGYUN 1C DEB,1 37907U 99025ENG 25219.04646271  .00004646  00000-0  20862-2 0  9990,2 37907  99.0777 328.1768 0064712 188.1348 171.8785 14.21789469814567
37908,2025-08-08T19:11:15.568800,14.36064938,0.0075197,99.1656,244.795,164.8366,195.5097,825.295,717.768,0.00042856,PRC,SMALL,0 FENGYUN 1C DEB,1 37908U 99025ENH 25220.79948575  .00001238  00000-0  42856-3 0  9999,2 37908  99.1656 244.7950 0075197 164.8366 195.5097 14.36064938622537
37912,2025-08-08T20:45:48.194496,14.10098971,0.009609,99.2199,186.1354,52.1859,308.7961,928.577,789.493,0.002241,PRC,SMALL,0 FENGYUN 1C DEB,1 37912U 99025ENM 25220.86514114  .00004090  00000-0  22410-2 0  9992,2 37912  99.2199 186.1354 0096090  52.1859 308.7961 14.10098971755130
37917,2025-08-08T11:57:30.959136,14.13334007,0.0046281,98.9327,318.8843,48.1356,312.3751,881.43,814.544,0.00060928,PRC,SMALL,0 FENGYUN 1C DEB,1 37917U 99025ENS 25220.49827499  .00001110  00000-0  60928-3 0  9996,2 37917  98.9327 318.8843 0046281  48.1356 312.3751 14.13334007620400
